APSTAR 6                
1 28638U 05012A   18357.89695091 -.00000313  00000-0  00000-0 0  9994
2 28638   0.4428  96.5795 0002400 179.9867 272.5042  1.00273373 75012
SPACEWAY 1              
1 28644U 05015A   18358.44999205  .00000108  00000-0  00000+0 0  9990
2 28644   0.0649 138.1884 0000486 141.1346 196.7128  1.00271753 50124
DIRECTV 8               
1 28659U 05019A   18358.02282570 -.00000110  00000-0  00000+0 0  9998
2 28659   0.0256 350.4749 0003157 277.4592  92.0298  1.00270301 49792
GALAXY 28 (G-28)        
1 28702U 05022A   18358.22359833 -.00000181  00000-0  00000+0 0  9998
2 28702   0.0163  44.7380 0000797 327.7623  71.6978  1.00270567 49436
EXPRESS-AM3             
1 28707U 05023A   18358.39662216 -.00000318  00000-0  00000+0 0  9996
2 28707   0.5909  93.7596 0001649 110.0014 134.9001  1.00269393 49447
THAICOM 4               
1 28786U 05028A   18358.02439951 -.00000357  00000-0  00000+0 0  9999
2 28786   0.0162  21.3364 0002664 250.5470 308.9296  1.00271725 48927
GALAXY 14 (G-14)        
1 28790U 05030A   18358.57243956  .00000040  00000-0  00000+0 0  9993
2 28790   0.0160 313.1785 0002730 320.5434 260.3900  1.00270853 48914
ANIK F1R                
1 28868U 05036A   18358.49257280 -.00000070  00000-0  00000+0 0  9995
2 28868   0.0164  30.0949 0001890 288.9800 203.9043  1.00270541 48769
GALAXY 15 (G-15)        
1 28884U 05041A   18357.65067765  .00000086  00000-0  00000-0 0  9990
2 28884   0.0196 316.4344 0001609 312.7137 284.2132  1.00270322 48352
SYRACUSE 3A             
1 28885U 05041B   18357.91924417  .00000134  00000-0  00000-0 0  9990
2 28885   0.0148  54.9530 0002220 216.2586 199.1023  1.00272545 48359
INMARSAT 4-F2           
1 28899U 05044A   18357.62847593  .00000016  00000-0  00000+0 0  9993
2 28899   2.7546  22.4599 0003433 261.8304  97.9830  1.00271238 48103
TELKOM 2                
1 28902U 05046A   18358.08799486 -.00000133  00000-0  00000+0 0  9999
2 28902   0.0296  67.0844 0001360  25.7147 188.4524  1.00269410 47843
SPACEWAY 2              
1 28903U 05046B   18358.20269130 -.00000122  00000-0  00000+0 0  9990
2 28903   0.0502 172.9499 0000284 117.1966 136.4422  1.00271004 48107
INSAT-4A                
1 28911U 05049A   18358.51087185 -.00000162  00000-0  00000+0 0  9998
2 28911   0.0512 273.7585 0006745   0.7626  85.4058  1.00271874 47709
METEOSAT-9 (MSG-2)      
1 28912U 05049B   18358.07298997  .00000021  00000-0  00000+0 0  9998
2 28912   3.3050  71.5296 0000209  15.0711  35.5736  1.00268570 47684
EUTELSAT 174A           
1 28924U 05052A   18358.53778358  .00000013  00000-0  00000+0 0  9991
2 28924   0.0636   0.3326 0006060 273.1369 187.1382  1.00271870 47590
ECHOSTAR 10             
1 28935U 06003A   18358.18825892 -.00000051  00000-0  00000+0 0  9990
2 28935   0.0121 333.4356 0002327 268.6903 168.1375  1.00270794 47123
HIMAWARI-7 (MTSAT-2)    
1 28937U 06004A   18357.81416059 -.00000237  00000-0  00000-0 0  9990
2 28937   0.0130  65.5197 0003496 204.2111 260.6660  1.00270154 47086
SPAINSAT                
1 28945U 06007A   18357.82668146 -.00000210  00000-0  00000+0 0  9999
2 28945   0.0377 216.5079 0005963  46.4252  97.0057  1.00270837 46830
EUTELSAT HOT BIRD 13E   
1 28946U 06007B   18357.70770158  .00000093  00000-0  00000+0 0  9992
2 28946   0.0642 155.0287 0005636  99.0368 105.8795  1.00270909 46908
JCSAT-5A                
1 29045U 06010A   18358.45761366 -.00000324  00000-0  00000+0 0  9999
2 29045   0.0279 280.3169 0001377 327.0629 142.3374  1.00273536 46557
ASTRA 1KR               
1 29055U 06012A   18357.86083189  .00000126  00000-0  00000-0 0  9996
2 29055   0.0529 271.5848 0005420 344.5766 165.2659  1.00271113 18324
GOES 13                 
1 29155U 06018A   18357.91086772 -.00000278  00000-0  00000+0 0  9998
2 29155   0.2659 103.0926 0006631 315.9476 301.0314  1.00281812 46126
EUTELSAT 113 WEST A     
1 29162U 06020A   18357.05950926 -.00000028  00000-0  00000+0 0  9998
2 29162   0.0258 256.7689 0002881  12.5893  90.6186  1.00271120 46067
THAICOM 5               
1 29163U 06020B   18358.51876612 -.00000118  00000-0  00000+0 0  9990
2 29163   0.0157  82.3024 0007783 205.0757  70.8599  1.00272067 46144
GALAXY 16 (G-16)        
1 29236U 06023A   18358.20269275 -.00000122  00000-0  00000+0 0  9996
2 29236   0.0204  16.6362 0002871 258.5996 151.4116  1.00269258 45872
EUTELSAT HOT BIRD 13B   
1 29270U 06032A   18357.89216198  .00000092  00000-0  00000-0 0  9990
2 29270   0.0713  38.6418 0005191 253.7287 134.1736  1.00270766 19939
JCSAT-3A                
1 29272U 06033A   18358.46299535 -.00000341  00000-0  00000+0 0  9990
2 29272   0.0446 279.1452 0002337   3.0702 105.4068  1.00270440 45376
SYRACUSE 3B             
1 29273U 06033B   18357.85594667 -.00000038  00000-0  00000-0 0  9991
2 29273   0.0171  17.6486 0004121 261.0381 116.5986  1.00270260 45301
KOREASAT 5 (MUGUNGWHA 5)
1 29349U 06034A   18358.52565777 -.00000355  00000-0  00000+0 0  9992
2 29349   0.0163  70.6613 0000648 215.9212 108.7062  1.00270324 45240
DIRECTV 9S              
1 29494U 06043A   18357.62693244 -.00000107  00000-0  00000-0 0  9990
2 29494   0.0176  60.2390 0003258 217.3219 299.1564  1.00270950 24003
OPTUS D1                
1 29495U 06043B   18358.00118664 -.00000105  00000-0  00000+0 0  9999
2 29495   0.0201  55.3670 0003699 221.1220 336.4193  1.00270692 44742
XM-4 (BLUES)            
1 29520U 06049A   18358.55205039 -.00000019  00000-0  00000+0 0  9991
2 29520   0.0440 185.9214 0000496  71.9052 278.6348  1.00272037 44605
BADR-4                  
1 29526U 06051A   18358.50829781  .00000148  00000-0  00000+0 0  9993
2 29526   0.0440 350.0699 0005972 306.9453   4.9478  1.00272827 44491
FENGYUN 2D              
1 29640U 06053A   18358.52783867 -.00000361  00000-0  10000-3 0  9991
2 29640   5.4626  61.7050 0005826 318.0176  27.1593  1.00268093 44163
WILDBLUE-1              
1 29643U 06054A   18358.18825935 -.00000044  00000-0  00000+0 0  9993
2 29643   0.0158  26.7151 0002148 258.3235 124.2225  1.00270006 44153
AMC-18                  
1 29644U 06054B   18358.14469706  .00000109  00000-0  00000+0 0  9991
2 29644   0.0353 294.0541 0000355   8.5991  63.0537  1.00271494 44165
MEASAT-3                
1 29648U 06056A   18358.52757462 -.00000238  00000-0  00000+0 0  9992
2 29648   0.0618 127.1549 0001512 120.8843 126.3913  1.00269454 44161
INSAT-4B                
1 30793U 07007A   18358.52530882 -.00000351  00000-0  00000+0 0  9993
2 30793   0.0181  16.3357 0003670 261.5076 115.5894  1.00270394 43176
SKYNET 5A               
1 30794U 07007B   18358.52271524 -.00000267  00000-0  00000+0 0  9995
2 30794   0.0676  20.8999 0003257 254.2469 101.2028  1.00270130 43263
ANIK F3                 
1 31102U 07009A   18358.57852469  .00000002  00000-0  00000+0 0  9995
2 31102   0.0170   0.5301 0002246 287.6140 254.4647  1.00270002 42941
ASTRA 1L                
1 31306U 07016A   18357.86083189  .00000126  00000-0  00000-0 0  9993
2 31306   0.0609 305.0987 0005539 339.4639 136.8623  1.00271418 17653
GALAXY 17 (G-17)        
1 31307U 07016B   18358.48491854 -.00000172  00000-0  00000+0 0  9996
2 31307   0.0137 348.1030 0003716 292.1781 256.2571  1.00277972 42686
ZHONGXING-6B            
1 31800U 07031A   18358.52618118 -.00000358  00000-0  00000+0 0  9996
2 31800   0.0227  18.0513 0003298 247.4025 132.4698  1.00271159 42082
DIRECTV 10              
1 31862U 07032A   18358.02872027 -.00000098  00000-0  00000+0 0  9992
2 31862   0.0452 205.6362 0000520  92.8612  61.5036  1.00272907 42018
SPACEWAY 3              
1 32018U 07036A   18358.48413341 -.00000148  00000-0  00000+0 0  9996
2 32018   0.0188 183.7349 0000341  93.0928 255.4820  1.00272688 41732
BSAT-3A                 
1 32019U 07036B   18357.43937957 -.00000342  00000-0  00000+0 0  9991
2 32019   0.0659 239.4511 0004753  13.5728 106.9323  1.00268727 41661
INSAT-4CR               
1 32050U 07037A   18358.59994251  .00000128  00000-0  00000+0 0  9996
2 32050   0.2238  97.5707 0005738 182.5126  76.8541  1.00273617 41452
OPTUS D2                
1 32252U 07044A   18358.53342177 -.00000180  00000-0  00000+0 0  9995
2 32252   0.0159  38.5969 0003951 236.1010 162.3501  1.00270208 41050
INTELSAT 11 (IS-11)     
1 32253U 07044B   18358.42271925 -.00000265  00000-0  00000+0 0  9990
2 32253   0.0236 287.3521 0001769 357.8950 276.8457  1.00270298 41133
WGS F1 (USA 195)        
1 32258U 07046A   18358.07360061  .00000046  00000-0  00000+0 0  9994
2 32258   0.0167  20.1899 0000385 251.8900 212.9587  1.00269664 40929
STAR ONE C1             
1 32293U 07056A   18356.92651674 -.00000267  00000-0  00000-0 0  9996
2 32293   0.0111  54.5846 0003121 231.3604  74.0308  1.00270957 24382
SKYNET 5B               
1 32294U 07056B   18358.50812333  .00000145  00000-0  00000+0 0  9997
2 32294   0.0677  11.4887 0003797 263.2877  26.2191  1.00272745 40791
ASTRA 4A (SIRIUS 4)     
1 32299U 07057A   18357.85795309  .00000038  00000-0  00000-0 0  9995
2 32299   0.0159 334.1934 0003080 295.6837 136.1358  1.00271895 24286
HORIZONS-2              
1 32388U 07063B   18358.52757462 -.00000179  00000-0  00000+0 0  9990
2 32388   0.0091  28.8713 0003046 255.3137  83.5986  1.00270434 40491
THURAYA-3               
1 32404U 08001A   18357.58948767 -.00000296  00000-0  00000-0 0  9998
2 32404   3.8467   0.8309 0005295 260.9850 140.9861  1.00271157 40135
EXPRESS-AM33            
1 32478U 08003A   18358.22883854 -.00000276  00000-0  00000+0 0  9995
2 32478   0.0484 199.3130 0000626 109.4091 322.8630  1.00270260 40215
THOR 5                  
1 32487U 08006A   18358.28759062 -.00000005  00000-0  00000+0 0  9997
2 32487   0.0208 270.3823 0002619   7.9854 277.1773  1.00270778 39785
KIZUNA (WINDS)          
1 32500U 08007A   18358.53158983 -.00000257  00000-0  00000+0 0  9996
2 32500   2.0288  86.9787 0001983 188.4751 151.9210  1.00271467 39641
